{
  "type": "FeatureCollection",
  "features": [
    {
      "type": "Feature",
      "properties": {
        "norad_id": 33412,
        "name": "COSMO-SKYMED 3",
        "group": "resource",
        "lat": 46.28940369861435,
        "lon": -174.33482841693552,
        "alt_km": 554.695363050073,
        "timestamp": "2025-12-09T14:52:25.822569+00:00",
        "meta_object_name": "COSMO-SKYMED 3",
        "meta_object_id": "2008-054A",
        "meta_epoch": "2025-12-09T06:41:20.171616",
        "meta_mean_motion": 15.05296172,
        "meta_eccentricity": 0.00158449,
        "meta_inclination": 97.8456,
        "meta_ra_of_asc_node": 193.6118,
        "meta_arg_of_pericenter": 185.8045,
        "meta_mean_anomaly": 174.3,
        "meta_ephemeris_type": 0,
        "meta_classification_type": "U",
        "meta_norad_cat_id": 33412,
        "meta_element_set_no": 999,
        "meta_rev_at_epoch": 92835,
        "meta_bstar": 0.00030164162,
        "meta_mean_motion_dot": 4.261e-05,
        "meta_mean_motion_ddot": 0,
        "tle_line1": "1 33412U 08054A   25343.27870569  .00004261  00000+0  30164-3 0  9990",
        "tle_line2": "2 33412  97.8456 193.6118 0015844 185.8045 174.3000 15.05296172928356"
      },
      "geometry": {
        "type": "Point",
        "coordinates": [
          -174.33482841693552,
          46.28940369861435
        ]
      }
    },
    {
      "type": "Feature",
      "properties": {
        "norad_id": 33446,
        "name": "YAOGAN-4",
        "group": "resource",
        "lat": -75.38926802882969,
        "lon": -53.98259505892991,
        "alt_km": 622.1960586005252,
        "timestamp": "2025-12-09T14:52:25.822580+00:00",
        "meta_object_name": "YAOGAN-4",
        "meta_object_id": "2008-061A",
        "meta_epoch": "2025-12-09T07:07:28.002432",
        "meta_mean_motion": 14.82666442,
        "meta_eccentricity": 0.00138766,
        "meta_inclination": 97.9178,
        "meta_ra_of_asc_node": 273.4298,
        "meta_arg_of_pericenter": 334.9799,
        "meta_mean_anomaly": 25.074,
        "meta_ephemeris_type": 0,
        "meta_classification_type": "U",
        "meta_norad_cat_id": 33446,
        "meta_element_set_no": 999,
        "meta_rev_at_epoch": 91752,
        "meta_bstar": 0.00035478857,
        "meta_mean_motion_dot": 2.811e-05,
        "meta_mean_motion_ddot": 0,
        "tle_line1": "1 33446U 08061A   25343.29685188  .00002811  00000+0  35479-3 0  9991",
        "tle_line2": "2 33446  97.9178 273.4298 0013876 334.9799  25.0740 14.82666442917522"
      },
      "geometry": {
        "type": "Point",
        "coordinates": [
          -53.98259505892991,
          -75.38926802882969
        ]
      }
    },
    {
      "type": "Feature",
      "properties": {
        "norad_id": 33492,
        "name": "GOSAT (IBUKI)",
        "group": "resource",
        "lat": 35.377049686701284,
        "lon": -81.946582750893,
        "alt_km": 666.1716227192155,
        "timestamp": "2025-12-09T14:52:25.822591+00:00",
        "meta_object_name": "GOSAT (IBUKI)",
        "meta_object_id": "2009-002A",
        "meta_epoch": "2025-12-09T07:40:26.125248",
        "meta_mean_motion": 14.67545588,
        "meta_eccentricity": 9.522e-05,
        "meta_inclination": 98.0769,
        "meta_ra_of_asc_node": 91.9706,
        "meta_arg_of_pericenter": 87.6966,
        "meta_mean_anomaly": 272.4348,
        "meta_ephemeris_type": 0,
        "meta_classification_type": "U",
        "meta_norad_cat_id": 33492,
        "meta_element_set_no": 999,
        "meta_rev_at_epoch": 90361,
        "meta_bstar": 0.00031398855,
        "meta_mean_motion_dot": 1.733e-05,
        "meta_mean_motion_ddot": 0,
        "tle_line1": "1 33492U 09002A   25343.31974682  .00001733  00000+0  31399-3 0  9990",
        "tle_line2": "2 33492  98.0769  91.9706 0000952  87.6966 272.4348 14.67545588903614"
      },
      "geometry": {
        "type": "Point",
        "coordinates": [
          -81.946582750893,
          35.377049686701284
        ]
      }
    },
    {
      "type": "Feature",
      "properties": {
        "norad_id": 35681,
        "name": "DEIMOS-1",
        "group": "resource",
        "lat": 40.44414165373198,
        "lon": -28.996871497845923,
        "alt_km": 641.0913399149449,
        "timestamp": "2025-12-09T14:52:25.822602+00:00",
        "meta_object_name": "DEIMOS-1",
        "meta_object_id": "2009-041A",
        "meta_epoch": "2025-12-09T07:43:59.514240",
        "meta_mean_motion": 14.74943916,
        "meta_eccentricity": 0.00027192,
        "meta_inclination": 97.7146,
        "meta_ra_of_asc_node": 144.0844,
        "meta_arg_of_pericenter": 84.6164,
        "meta_mean_anomaly": 275.5356,
        "meta_ephemeris_type": 0,
        "meta_classification_type": "U",
        "meta_norad_cat_id": 35681,
        "meta_element_set_no": 999,
        "meta_rev_at_epoch": 87889,
        "meta_bstar": 0.00015478183,
        "meta_mean_motion_dot": 9.92e-06,
        "meta_mean_motion_ddot": 0,
        "tle_line1": "1 35681U 09041A   25343.32221660  .00000992  00000+0  15478-3 0  9993",
        "tle_line2": "2 35681  97.7146 144.0844 0002719  84.6164 275.5356 14.74943916878893"
      },
      "geometry": {
        "type": "Point",
        "coordinates": [
          -28.996871497845923,
          40.44414165373198
        ]
      }
    },
    {
      "type": "Feature",
      "properties": {
        "norad_id": 35682,
        "name": "DUBAISAT-1",
        "group": "resource",
        "lat": 75.47061890477146,
        "lon": 81.57985637839016,
        "alt_km": 641.8949134409722,
        "timestamp": "2025-12-09T14:52:25.822612+00:00",
        "meta_object_name": "DUBAISAT-1",
        "meta_object_id": "2009-041B",
        "meta_epoch": "2025-12-09T06:22:46.729632",
        "meta_mean_motion": 14.74589178,
        "meta_eccentricity": 0.00097769,
        "meta_inclination": 97.979,
        "meta_ra_of_asc_node": 113.9969,
        "meta_arg_of_pericenter": 326.6122,
        "meta_mean_anomaly": 33.4469,
        "meta_ephemeris_type": 0,
        "meta_classification_type": "U",
        "meta_norad_cat_id": 35682,
        "meta_element_set_no": 999,
        "meta_rev_at_epoch": 87710,
        "meta_bstar": 0.00037330033,
        "meta_mean_motion_dot": 2.439e-05,
        "meta_mean_motion_ddot": 0,
        "tle_line1": "1 35682U 09041B   25343.26581863  .00002439  00000+0  37330-3 0  9990",
        "tle_line2": "2 35682  97.9790 113.9969 0009776 326.6122  33.4469 14.74589178877102"
      },
      "geometry": {
        "type": "Point",
        "coordinates": [
          81.57985637839016,
          75.47061890477146
        ]
      }
    },
    {
      "type": "Feature",
      "properties": {
        "norad_id": 35931,
        "name": "OCEANSAT-2",
        "group": "resource",
        "lat": 15.787861237535031,
        "lon": -17.806170632966573,
        "alt_km": 886.2400861975229,
        "timestamp": "2025-12-09T14:52:25.822623+00:00",
        "meta_object_name": "OCEANSAT-2",
        "meta_object_id": "2009-051A",
        "meta_epoch": "2025-12-09T07:56:06.678240",
        "meta_mean_motion": 13.99625466,
        "meta_eccentricity": 0.00163455,
        "meta_inclination": 98.2225,
        "meta_ra_of_asc_node": 344.2771,
        "meta_arg_of_pericenter": 53.9479,
        "meta_mean_anomaly": 306.3199,
        "meta_ephemeris_type": 0,
        "meta_classification_type": "U",
        "meta_norad_cat_id": 35931,
        "meta_element_set_no": 999,
        "meta_rev_at_epoch": 85277,
        "meta_bstar": -6.8287004e-05,
        "meta_mean_motion_dot": -1.37e-06,
        "meta_mean_motion_ddot": 0,
        "tle_line1": "1 35931U 09051A   25343.33063285 -.00000137  00000+0 -68287-4 0  9990",
        "tle_line2": "2 35931  98.2225 344.2771 0016345  53.9479 306.3199 13.99625466852776"
      },
      "geometry": {
        "type": "Point",
        "coordinates": [
          -17.806170632966573,
          15.787861237535031
        ]
      }
    },
    {
      "type": "Feature",
      "properties": {
        "norad_id": 35946,
        "name": "WORLDVIEW-2 (WV-2)",
        "group": "resource",
        "lat": 68.86291294360308,
        "lon": 32.058801993917506,
        "alt_km": 755.7354854755013,
        "timestamp": "2025-12-09T14:52:25.822634+00:00",
        "meta_object_name": "WORLDVIEW-2 (WV-2)",
        "meta_object_id": "2009-055A",
        "meta_epoch": "2025-12-09T07:51:56.318688",
        "meta_mean_motion": 14.37650626,
        "meta_eccentricity": 0.00053659,
        "meta_inclination": 98.4763,
        "meta_ra_of_asc_node": 54.4595,
        "meta_arg_of_pericenter": 75.1504,
        "meta_mean_anomaly": 285.0277,
        "meta_ephemeris_type": 0,
        "meta_classification_type": "U",
        "meta_norad_cat_id": 35946,
        "meta_element_set_no": 999,
        "meta_rev_at_epoch": 84836,
        "meta_bstar": 0.00013326798,
        "meta_mean_motion_dot": 3.57e-06,
        "meta_mean_motion_ddot": 0,
        "tle_line1": "1 35946U 09055A   25343.32773517  .00000357  00000+0  13327-3 0  9991",
        "tle_line2": "2 35946  98.4763  54.4595 0005365  75.1504 285.0277 14.37650626848369"
      },
      "geometry": {
        "type": "Point",
        "coordinates": [
          32.058801993917506,
          68.86291294360308
        ]
      }
    }
  ]
}